STARLINK-31238          
1 58853U 24019A   26068.48494196 -.00000141  00000+0  44063-5 0  9990
2 58853  43.0033 249.8573 0001476 277.3704  82.6980 15.27575974119051
HERMES-5                
1 63834U 25052BQ  26068.94017645  .00017673  00000+0  68450-3 0  9995
2 63834  97.4082 324.1247 0006071 124.4334 235.7479 15.26210393 54800
